GLOBALSTAR M075 [+]     
1 37192U 10054E   24069.50190146 -.00000081  00000+0  12566-3 0  9991
2 37192  51.9937 156.4035 0000536 107.1300 267.0842 12.62271414617326
GLOBALSTAR M073 [+]     
1 37193U 10054F   24069.26364686 -.00000094  00000+0  52794-4 0  9999
2 37193  52.0056  70.5886 0000446  89.9946 282.5140 12.62262404619126
GLOBALSTAR M083 [+]     
1 37739U 11033A   24069.63130916 -.00000093  00000+0  60263-4 0  9990
2 37739  51.9885  18.8370 0000248  55.8511 127.9816 12.62266268588188
GLOBALSTAR M088 [+]     
1 37740U 11033B   24069.36461664 -.00000063  00000+0  22643-3 0  9995
2 37740  51.9726 285.5346 0000662  70.0880 101.8175 12.62265864583699
GLOBALSTAR M091 [+]     
1 37741U 11033C   24069.22100606 -.00000091  00000+0  69445-4 0  9990
2 37741  51.9976 248.6933 0000629  75.7801 103.3129 12.62272229584462
GLOBALSTAR M085 [+]     
1 37742U 11033D   24069.59346769 -.00000110  00000+0 -33626-4 0  9998
2 37742  51.9853 199.0091 0000541  97.9006  33.8147 12.62268392585023
GLOBALSTAR M081 [+]     
1 37743U 11033E   24069.52872538 -.00000118  00000+0 -78339-4 0  9998
2 37743  51.9942 201.7057 0000667  81.0179 356.9055 12.62270395585168
GLOBALSTAR M089 [+]     
1 37744U 11033F   24069.55443517 -.00000092  00000+0  67511-4 0  9993
2 37744  51.9921 155.9451 0000994  99.2901 274.5013 12.62272017586265
